[
    {
        "OBJECT_NAME": "NAVSTAR 85 (USA 581)",
        "OBJECT_ID": "2026-017A",
        "EPOCH": "2026-07-20T02:27:29.246112",
        "MEAN_MOTION": 2.00570435,
        "ECCENTRICITY": 0.00213058,
        "INCLINATION": 55.1095,
        "RA_OF_ASC_NODE": 87.4339,
        "ARG_OF_PERICENTER": 260.2926,
        "MEAN_ANOMALY": 99.5185,
        "EPHEMERIS_TYPE": 0,
        "CLASSIFICATION_TYPE": "U",
        "NORAD_CAT_ID": 67588,
        "ELEMENT_SET_NO": 999,
        "REV_AT_EPOCH": 43227,
        "BSTAR": 0,
        "MEAN_MOTION_DOT": -5.4e-07,
        "MEAN_MOTION_DDOT": 0
    },
    {
        "OBJECT_NAME": "NAVSTAR 86 (USA 585)",
        "OBJECT_ID": "2026-087A",
        "EPOCH": "2026-07-22T07:34:38.593344",
        "MEAN_MOTION": 2.00573383,
        "ECCENTRICITY": 0.00205169,
        "INCLINATION": 54.9613,
        "RA_OF_ASC_NODE": 206.3984,
        "ARG_OF_PERICENTER": 105.9456,
        "MEAN_ANOMALY": 257.8163,
        "EPHEMERIS_TYPE": 0,
        "CLASSIFICATION_TYPE": "U",
        "NORAD_CAT_ID": 68791,
        "ELEMENT_SET_NO": 999,
        "REV_AT_EPOCH": 154,
        "BSTAR": 0,
        "MEAN_MOTION_DOT": 8.6e-07,
        "MEAN_MOTION_DDOT": 0
    }
]
